NORAD_CAT_ID,OBJECT_NAME,OBJECT_TYPE,EPOCH,MEAN_MOTION,ECCENTRICITY,INCLINATION,RA_OF_ASC_NODE,ARG_OF_PERICENTER,MEAN_ANOMALY,BSTAR,MEAN_MOTION_DOT,MEAN_MOTION_DDOT,TLE_LINE0,TLE_LINE1,TLE_LINE2,SEMIMAJOR_AXIS,PERIOD,APOGEE,PERIGEE,DECAYED
52480.0,STARLINK-3839,PAYLOAD,2023-05-16 13:58:31,15.08827109,0.000126,53.2179,354.4758,107.7384,252.3746,0.00030974,4.643e-05,0.0,0 STARLINK-3839,1 52480U 22049AF  23136.58230556  .00004643  00000-0  30974-3 0  9998,2 52480  53.2179 354.4758 0001260 107.7384 252.3746 15.08827109 57207,6917.92,95.438,540.656,538.913,0.0
52480.0,STARLINK-3839,PAYLOAD,2023-05-16 21:55:26,15.08836847,0.0001297,53.2179,352.989,103.4405,256.6732,9.6317e-06,-1.35e-06,0.0,0 STARLINK-3839,1 52480U 22049AF  23136.91349971 -.00000135  00000-0  96317-5 0  9995,2 52480  53.2179 352.9890 0001297 103.4405 256.6732 15.08836847 57250,6917.89,95.438,540.652,538.858,0.0
52480.0,STARLINK-3839,PAYLOAD,2023-05-17 02:41:35,15.08847305,0.0001194,53.2174,352.0943,89.5808,270.5321,0.00011546,1.551e-05,0.0,0 STARLINK-3839,1 52480U 22049AF  23137.11221469  .00001551  00000-0  11546-3 0  9990,2 52480  53.2174 352.0943 0001194  89.5808 270.5321 15.08847305 57285,6917.858,95.437,540.549,538.897,0.0
52480.0,STARLINK-3839,PAYLOAD,2023-05-17 05:52:22,15.08835627,0.0001267,53.2177,351.4997,79.1915,280.922,5.2647e-06,-2.04e-06,0.0,0 STARLINK-3839,1 52480U 22049AF  23137.24470453 -.00000204  00000-0  52647-5 0  9997,2 52480  53.2177 351.4997 0001267  79.1915 280.9220 15.08835627 57305,6917.894,95.438,540.635,538.882,0.0
52480.0,STARLINK-3839,PAYLOAD,2023-05-17 21:46:13,15.08845534,0.0001195,53.2171,348.5252,86.5452,273.5677,0.00017428,2.487e-05,0.0,0 STARLINK-3839,1 52480U 22049AF  23137.90709906  .00002487  00000-0  17428-3 0  9998,2 52480  53.2171 348.5252 0001195  86.5452 273.5677 15.08845534 57243,6917.863,95.437,540.555,538.902,0.0
52480.0,STARLINK-3839,PAYLOAD,2023-05-18 00:56:59,15.08849224,0.0001184,53.217,347.9309,84.0837,276.029,0.00026969,4.008e-05,0.0,0 STARLINK-3839,1 52480U 22049AF  23138.03957747  .00004008  00000-0  26969-3 0  9992,2 52480  53.2170 347.9309 0001184  84.0837 276.0290 15.08849224 57425,6917.852,95.437,540.536,538.898,0.0
52480.0,STARLINK-3839,PAYLOAD,2023-05-18 13:40:04,15.08842366,0.0001186,53.2167,345.5519,82.114,277.9987,0.00011596,1.558e-05,0.0,0 STARLINK-3839,1 52480U 22049AF  23138.56950003  .00001558  00000-0  11596-3 0  9995,2 52480  53.2167 345.5519 0001186  82.1140 277.9987 15.08842366 57340,6917.873,95.437,540.559,538.918,0.0
52480.0,STARLINK-3839,PAYLOAD,2023-05-18 20:01:37,15.08850126,0.0001177,53.2169,344.3626,82.1468,277.9657,0.00026867,3.992e-05,0.0,0 STARLINK-3839,1 52480U 22049AF  23138.83445709  .00003992  00000-0  26867-3 0  9998,2 52480  53.2169 344.3626 0001177  82.1468 277.9657 15.08850126 57382,6917.849,95.437,540.529,538.9,0.0
52480.0,STARLINK-3839,PAYLOAD,2023-05-19 16:41:38,15.08842306,0.0001255,53.2167,340.4969,84.3471,275.7664,0.00011289,1.509e-05,0.0,0 STARLINK-3839,1 52480U 22049AF  23139.69557889  .00001509  00000-0  11289-3 0  9990,2 52480  53.2167 340.4969 0001255  84.3471 275.7664 15.08842306 57679,6917.873,95.437,540.607,538.87,0.0
52480.0,STARLINK-3839,PAYLOAD,2023-05-19 19:52:24,15.08845427,0.0001223,53.2168,339.9021,86.1126,274.0006,0.00015679,2.209e-05,0.0,0 STARLINK-3839,1 52480U 22049AF  23139.82805760  .00002209  00000-0  15679-3 0  9994,2 52480  53.2168 339.9021 0001223  86.1126 274.0006 15.08845427 57538,6917.864,95.437,540.575,538.883,0.0
52480.0,STARLINK-3839,PAYLOAD,2023-05-20 19:43:10,15.08849116,0.0001145,53.2163,335.4398,88.8864,271.2259,0.00014893,2.084e-05,0.0,0 STARLINK-3839,1 52480U 22049AF  23140.82165359  .00002084  00000-0  14893-3 0  9997,2 52480  53.2163 335.4398 0001145  88.8864 271.2259 15.08849116 57844,6917.853,95.437,540.51,538.925,0.0
52480.0,STARLINK-3839,PAYLOAD,2023-05-20 22:53:56,15.08854209,0.0001165,53.2162,334.8452,84.4102,275.7023,0.00022343,3.271e-05,0.0,0 STARLINK-3839,1 52480U 22049AF  23140.95413064  .00003271  00000-0  22343-3 0  9998,2 52480  53.2162 334.8452 0001165  84.4102 275.7023 15.08854209 57708,6917.837,95.437,540.508,538.896,0.0
52480.0,STARLINK-3839,PAYLOAD,2023-05-21 19:33:59,15.08831452,0.0001188,53.2164,330.9802,88.3254,271.7875,-5.0197e-05,-1.086e-05,0.0,0 STARLINK-3839,1 52480U 22049AF  23141.81526648 -.00001086  00000-0 -50197-4 0  9990,2 52480  53.2164 330.9802 0001188  88.3254 271.7875 15.08831452 57999,6917.907,95.438,540.593,538.95,0.0
52480.0,STARLINK-3839,PAYLOAD,2023-05-22 13:03:13,15.08843981,0.0001144,53.2168,327.7084,84.3866,275.7257,0.00019447,2.809e-05,0.0,0 STARLINK-3839,1 52480U 22049AF  23142.54390416  .00002809  00000-0  19447-3 0  9997,2 52480  53.2168 327.7084 0001144  84.3866 275.7257 15.08843981 57949,6917.868,95.437,540.525,538.942,0.0
52480.0,STARLINK-3839,PAYLOAD,2023-05-22 19:24:45,15.08854041,0.000111,53.2162,326.5204,91.3327,268.7793,0.00058796,9.085e-05,0.0,0 STARLINK-3839,1 52480U 22049AF  23142.80886242  .00009085  00000-0  58796-3 0  9996,2 52480  53.2162 326.5204 0001110  91.3327 268.7793 15.08854041 58146,6917.837,95.437,540.47,538.935,0.0
52480.0,STARLINK-3839,PAYLOAD,2023-05-23 01:46:18,15.08833177,0.0001373,53.2167,325.3298,73.4662,286.6481,-8.906e-05,-1.705e-05,0.0,0 STARLINK-3839,1 52480U 22049AF  23143.07382620 -.00001705  00000-0 -89060-4 0  9999,2 52480  53.2167 325.3298 0001373  73.4662 286.6481 15.08833177 58189,6917.901,95.438,540.716,538.816,0.0
52480.0,STARLINK-3839,PAYLOAD,2023-05-23 17:40:09,15.08841762,0.0001235,53.2163,322.3569,110.2788,249.8336,0.0011406,0.00017912,0.0,0 STARLINK-3839,1 52480U 22049AF  23143.73622571  .00017912  00000-0  11406-2 0  9996,2 52480  53.2163 322.3569 0001235 110.2788 249.8336 15.08841762 58289,6917.875,95.437,540.594,538.886,0.0
52480.0,STARLINK-3839,PAYLOAD,2023-05-23 22:26:19,15.08849881,0.000107,53.2166,321.4651,101.0636,259.0477,0.00061622,9.535e-05,0.0,0 STARLINK-3839,1 52480U 22049AF  23143.93494431  .00009535  00000-0  61622-3 0  9998,2 52480  53.2166 321.4651 0001070 101.0636 259.0477 15.08849881 58156,6917.85,95.437,540.455,538.975,0.0
52480.0,STARLINK-3839,PAYLOAD,2023-05-24 04:47:51,15.08838622,9.93e-05,53.2165,320.2758,108.8023,251.3076,0.00036842,5.58e-05,0.0,0 STARLINK-3839,1 52480U 22049AF  23144.19990676  .00005580  00000-0  36842-3 0  9991,2 52480  53.2165 320.2758 0000993 108.8023 251.3076 15.08838622 58351,6917.885,95.438,540.437,539.063,0.0
52480.0,STARLINK-3839,PAYLOAD,2023-05-24 15:55:33,15.08845508,0.000101,53.2164,318.1942,101.7194,258.3911,0.00061072,9.447e-05,0.0,0 STARLINK-3839,1 52480U 22049AF  23144.66358734  .00009447  00000-0  61072-3 0  9995,2 52480  53.2164 318.1942 0001010 101.7194 258.3911 15.08845508 58269,6917.864,95.437,540.427,539.03,0.0
52480.0,STARLINK-3839,PAYLOAD,2023-05-25 18:57:07,15.08854981,9.99e-05,53.2163,313.1389,93.2605,266.8501,0.0006793,0.00010544,0.0,0 STARLINK-3839,1 52480U 22049AF  23145.78966446  .00010544  00000-0  67930-3 0  9993,2 52480  53.2163 313.1389 0000999  93.2605 266.8501 15.08854981 58595,6917.835,95.437,540.391,539.009,0.0
52480.0,STARLINK-3839,PAYLOAD,2023-05-26 17:12:31,15.08842973,9.3e-05,53.2161,308.9755,98.8592,261.2506,0.00023241,3.413e-05,0.0,0 STARLINK-3839,1 52480U 22049AF  23146.71702741  .00003413  00000-0  23241-3 0  9997,2 52480  53.2161 308.9755 0000930  98.8592 261.2506 15.08842973 58731,6917.871,95.437,540.38,539.093,0.0
52480.0,STARLINK-3839,PAYLOAD,2023-05-27 17:03:18,15.08844741,0.0001041,53.2162,304.5149,84.4249,275.6862,0.0002092,3.044e-05,0.0,0 STARLINK-3839,1 52480U 22049AF  23147.71062885  .00003044  00000-0  20920-3 0  9997,2 52480  53.2162 304.5149 0001041  84.4249 275.6862 15.08844741 58880,6917.866,95.437,540.451,539.011,0.0
52480.0,STARLINK-3839,PAYLOAD,2023-05-28 16:54:05,15.08852079,9.97e-05,53.2161,300.0552,77.4951,282.6152,0.00032624,4.91e-05,0.0,0 STARLINK-3839,1 52480U 22049AF  23148.70422536  .00004910  00000-0  32624-3 0  9997,2 52480  53.2161 300.0552 0000997  77.4951 282.6152 15.08852079 58871,6917.843,95.437,540.398,539.019,0.0
52480.0,STARLINK-3839,PAYLOAD,2023-05-29 10:23:19,15.0883986,9.73e-05,53.2154,296.7855,75.8702,284.2398,2.0714e-05,4.2e-07,0.0,0 STARLINK-3839,1 52480U 22049AF  23149.43286850  .00000042  00000-0  20714-4 0  9995,2 52480  53.2154 296.7855 0000973  75.8702 284.2398 15.08839860 59144,6917.881,95.438,540.419,539.073,0.0
52480.0,STARLINK-3839,PAYLOAD,2023-05-29 13:34:06,15.08839686,0.0001022,53.2157,296.1902,74.7976,285.3129,5.0301e-05,5.13e-06,0.0,0 STARLINK-3839,1 52480U 22049AF  23149.56534901  .00000513  00000-0  50301-4 0  9990,2 52480  53.2157 296.1902 0001022  74.7976 285.3129 15.08839686 59006,6917.881,95.438,540.453,539.039,0.0
52480.0,STARLINK-3839,PAYLOAD,2023-05-29 16:44:52,15.08840858,8.69e-05,53.2157,295.595,70.567,289.5416,5.3356e-05,5.62e-06,0.0,0 STARLINK-3839,1 52480U 22049AF  23149.69782790  .00000562  00000-0  53356-4 0  9992,2 52480  53.2157 295.5950 0000869  70.5670 289.5416 15.08840858 59025,6917.878,95.438,540.344,539.142,0.0
52480.0,STARLINK-3839,PAYLOAD,2023-05-30 02:17:11,15.08841064,8.7e-05,53.2154,293.8108,66.9859,293.1224,3.5221e-05,2.73e-06,0.0,0 STARLINK-3839,1 52480U 22049AF  23150.09526729  .00000273  00000-0  35221-4 0  9996,2 52480  53.2154 293.8108 0000870  66.9859 293.1224 15.08841064 59082,6917.877,95.437,540.344,539.14,0.0
52480.0,STARLINK-3839,PAYLOAD,2023-05-30 15:00:16,15.08837947,9e-05,53.2166,291.4321,66.8615,293.2472,7.381e-06,-1.7e-06,0.0,0 STARLINK-3839,1 52480U 22049AF  23150.62519305 -.00000170  00000-0  73810-5 0  9991,2 52480  53.2166 291.4321 0000900  66.8615 293.2472 15.08837947 59327,6917.887,95.438,540.374,539.129,0.0
52480.0,STARLINK-3839,PAYLOAD,2023-05-31 02:07:58,15.08843952,9.07e-05,53.2174,289.3518,86.0698,274.0398,1.0674e-05,-1.18e-06,0.0,0 STARLINK-3839,1 52480U 22049AF  23151.08886848 -.00000118  00000-0  10674-4 0  9991,2 52480  53.2174 289.3518 0000907  86.0698 274.0398 15.08843952 59396,6917.868,95.437,540.361,539.106,0.0
